CUTE-1 (CO-55)          
1 27844U 03031E   26072.98964531  .00000396  00000+0  19032-3 0  9999
2 27844  98.6777  82.7351 0010745 101.3524 258.8862 14.24270180178127
CUBESAT XI-IV (CO-57)   
1 27848U 03031J   26073.56320221  .00000349  00000+0  17224-3 0  9999
2 27848  98.6807  83.0901 0010521 116.0304 244.1959 14.23565240177915
CUBESAT XI-V            
1 28895U 05043F   26073.40511845  .00002210  00000+0  35702-3 0  9994
2 28895  98.2838 227.1185 0014964 143.2981 216.9253 14.72342957 87805
CUTE-1.7+APD II (CO-65) 
1 32785U 08021C   26073.55609676  .00009572  00000+0  61792-3 0  9998
2 32785  97.8205  53.1147 0009061   2.4593 357.6677 15.08451051970926
CANX-2                  
1 32790U 08021H   26072.89627612  .00005974  00000+0  42669-3 0  9994
2 32790  97.8549  50.9188 0010906  14.2730 345.8802 15.04842735970475
SEEDS II (CO-66)        
1 32791U 08021J   26073.43612563  .00022985  00000+0  80965-3 0  9997
2 32791  97.7516  67.0643 0000660 332.7648  27.3557 15.29309746972799
SWISSCUBE               
1 35932U 09051B   26073.47271382  .00001347  00000+0  27685-3 0  9994
2 35932  98.4097 339.7002 0007406 138.7265 221.4497 14.62273966875313
BEESAT-1                
1 35933U 09051C   26073.57075262  .00001195  00000+0  25066-3 0  9997
2 35933  98.4024 339.6305 0005649 148.8301 211.3235 14.61546162875362
ITUPSAT1                
1 35935U 09051E   26072.79400777  .00001105  00000+0  23882-3 0  9990
2 35935  98.4112 338.1321 0007539 165.3239 194.8181 14.60278143874812
TISAT 1                 
1 36799U 10035E   26073.07987102  .00025205  00000+0  92777-3 0  9993
2 36799  98.0647  11.5235 0001981 154.0893 206.0444 15.27848554853168
AEROCUBE 4.5A           
1 38767U 12048K   26073.13992856  .00108446  00000+0  11293-2 0  9997
2 38767  64.6385   4.5584 0040113 210.5295 149.3517 15.62968748357689
STRAND-1                
1 39090U 13009E   26073.43811536  .00000416  00000+0  15431-3 0  9990
2 39090  98.3892 256.0118 0009273 148.2913 211.8834 14.37099499683452
BRITE-AUSTRIA           
1 39091U 13009F   26073.48035883  .00000266  00000+0  10502-3 0  9996
2 39091  98.3961 255.2680 0010648 157.2399 202.9262 14.36499380683459
NEE-01 PEGASO           
1 39151U 13018B   26073.19021079  .00004160  00000+0  40402-3 0  9992
2 39151  98.1050 214.3171 0013821 116.2405 244.0236 14.93130283696520
POPACS 2                
1 39269U 13055E   26073.48597405  .00032281  00000+0  55800-3 0  9999
2 39269  80.9889 252.3698 0429795 137.5305 226.0028 14.88113822649117
POPACS 3                
1 39270U 13055F   26073.42797117  .00014856  00000+0  35879-3 0  9999
2 39270  81.0048 331.7976 0559317 358.3347   1.5961 14.54121899624775
