[{"OBJECT_NAME":"CUTE-1 (CO-55)","OBJECT_ID":"2003-031E","EPOCH":"2026-03-13T23:45:05.354784","MEAN_MOTION":14.2427018,"ECCENTRICITY":0.00107453,"INCLINATION":98.6777,"RA_OF_ASC_NODE":82.7351,"ARG_OF_PERICENTER":101.3524,"MEAN_ANOMALY":258.8862,"EPHEMERIS_TYPE":0,"CLASSIFICATION_TYPE":"U","NORAD_CAT_ID":27844,"ELEMENT_SET_NO":999,"REV_AT_EPOCH":17812,"BSTAR":0.00019032227,"MEAN_MOTION_DOT":3.96e-6,"MEAN_MOTION_DDOT":0},{"OBJECT_NAME":"CUBESAT XI-IV (CO-57)","OBJECT_ID":"2003-031J","EPOCH":"2026-03-14T13:31:00.670944","MEAN_MOTION":14.2356524,"ECCENTRICITY":0.00105214,"INCLINATION":98.6807,"RA_OF_ASC_NODE":83.0901,"ARG_OF_PERICENTER":116.0304,"MEAN_ANOMALY":244.1959,"EPHEMERIS_TYPE":0,"CLASSIFICATION_TYPE":"U","NORAD_CAT_ID":27848,"ELEMENT_SET_NO":999,"REV_AT_EPOCH":17791,"BSTAR":0.00017224166,"MEAN_MOTION_DOT":3.49e-6,"MEAN_MOTION_DDOT":0},{"OBJECT_NAME":"CUBESAT XI-V","OBJECT_ID":"2005-043F","EPOCH":"2026-03-14T09:43:22.234080","MEAN_MOTION":14.72342957,"ECCENTRICITY":0.00149649,"INCLINATION":98.2838,"RA_OF_ASC_NODE":227.1185,"ARG_OF_PERICENTER":143.2981,"MEAN_ANOMALY":216.9253,"EPHEMERIS_TYPE":0,"CLASSIFICATION_TYPE":"U","NORAD_CAT_ID":28895,"ELEMENT_SET_NO":999,"REV_AT_EPOCH":8780,"BSTAR":0.00035702443,"MEAN_MOTION_DOT":2.21e-5,"MEAN_MOTION_DDOT":0},{"OBJECT_NAME":"CUTE-1.7+APD II (CO-65)","OBJECT_ID":"2008-021C","EPOCH":"2026-03-14T13:20:46.760064","MEAN_MOTION":15.08451051,"ECCENTRICITY":0.00090616,"INCLINATION":97.8205,"RA_OF_ASC_NODE":53.1147,"ARG_OF_PERICENTER":2.4593,"MEAN_ANOMALY":357.6677,"EPHEMERIS_TYPE":0,"CLASSIFICATION_TYPE":"U","NORAD_CAT_ID":32785,"ELEMENT_SET_NO":999,"REV_AT_EPOCH":97092,"BSTAR":0.00061791977,"MEAN_MOTION_DOT":9.572e-5,"MEAN_MOTION_DDOT":0},{"OBJECT_NAME":"CANX-2","OBJECT_ID":"2008-021H","EPOCH":"2026-03-13T21:30:38.256768","MEAN_MOTION":15.04842735,"ECCENTRICITY":0.0010906,"INCLINATION":97.8549,"RA_OF_ASC_NODE":50.9188,"ARG_OF_PERICENTER":14.273,"MEAN_ANOMALY":345.8802,"EPHEMERIS_TYPE":0,"CLASSIFICATION_TYPE":"U","NORAD_CAT_ID":32790,"ELEMENT_SET_NO":999,"REV_AT_EPOCH":97047,"BSTAR":0.00042669345,"MEAN_MOTION_DOT":5.974e-5,"MEAN_MOTION_DDOT":0},{"OBJECT_NAME":"SEEDS II (CO-66)","OBJECT_ID":"2008-021J","EPOCH":"2026-03-14T10:28:01.254432","MEAN_MOTION":15.29309746,"ECCENTRICITY":6.601e-5,"INCLINATION":97.7516,"RA_OF_ASC_NODE":67.0643,"ARG_OF_PERICENTER":332.7648,"MEAN_ANOMALY":27.3557,"EPHEMERIS_TYPE":0,"CLASSIFICATION_TYPE":"U","NORAD_CAT_ID":32791,"ELEMENT_SET_NO":999,"REV_AT_EPOCH":97279,"BSTAR":0.0008096451,"MEAN_MOTION_DOT":0.00022985,"MEAN_MOTION_DDOT":0},{"OBJECT_NAME":"SWISSCUBE","OBJECT_ID":"2009-051B","EPOCH":"2026-03-14T11:20:42.474048","MEAN_MOTION":14.62273966,"ECCENTRICITY":0.00074063,"INCLINATION":98.4097,"RA_OF_ASC_NODE":339.7002,"ARG_OF_PERICENTER":138.7265,"MEAN_ANOMALY":221.4497,"EPHEMERIS_TYPE":0,"CLASSIFICATION_TYPE":"U","NORAD_CAT_ID":35932,"ELEMENT_SET_NO":999,"REV_AT_EPOCH":87531,"BSTAR":0.00027685463,"MEAN_MOTION_DOT":1.347e-5,"MEAN_MOTION_DDOT":0},{"OBJECT_NAME":"BEESAT-1","OBJECT_ID":"2009-051C","EPOCH":"2026-03-14T13:41:53.026368","MEAN_MOTION":14.61546162,"ECCENTRICITY":0.00056496,"INCLINATION":98.4024,"RA_OF_ASC_NODE":339.6305,"ARG_OF_PERICENTER":148.8301,"MEAN_ANOMALY":211.3235,"EPHEMERIS_TYPE":0,"CLASSIFICATION_TYPE":"U","NORAD_CAT_ID":35933,"ELEMENT_SET_NO":999,"REV_AT_EPOCH":87536,"BSTAR":0.00025065997,"MEAN_MOTION_DOT":1.195e-5,"MEAN_MOTION_DDOT":0},{"OBJECT_NAME":"ITUPSAT1","OBJECT_ID":"2009-051E","EPOCH":"2026-03-13T19:03:22.271328","MEAN_MOTION":14.60278143,"ECCENTRICITY":0.00075398,"INCLINATION":98.4112,"RA_OF_ASC_NODE":338.1321,"ARG_OF_PERICENTER":165.3239,"MEAN_ANOMALY":194.8181,"EPHEMERIS_TYPE":0,"CLASSIFICATION_TYPE":"U","NORAD_CAT_ID":35935,"ELEMENT_SET_NO":999,"REV_AT_EPOCH":87481,"BSTAR":0.0002388211,"MEAN_MOTION_DOT":1.105e-5,"MEAN_MOTION_DDOT":0},{"OBJECT_NAME":"TISAT 1","OBJECT_ID":"2010-035E","EPOCH":"2026-03-14T01:55:00.856128","MEAN_MOTION":15.27848554,"ECCENTRICITY":0.00019814,"INCLINATION":98.0647,"RA_OF_ASC_NODE":11.5235,"ARG_OF_PERICENTER":154.0893,"MEAN_ANOMALY":206.0444,"EPHEMERIS_TYPE":0,"CLASSIFICATION_TYPE":"U","NORAD_CAT_ID":36799,"ELEMENT_SET_NO":999,"REV_AT_EPOCH":85316,"BSTAR":0.00092776795,"MEAN_MOTION_DOT":0.00025205,"MEAN_MOTION_DDOT":0},{"OBJECT_NAME":"AEROCUBE 4.5A","OBJECT_ID":"2012-048K","EPOCH":"2026-03-14T03:21:29.827584","MEAN_MOTION":15.62968748,"ECCENTRICITY":0.00401135,"INCLINATION":64.6385,"RA_OF_ASC_NODE":4.5584,"ARG_OF_PERICENTER":210.5295,"MEAN_ANOMALY":149.3517,"EPHEMERIS_TYPE":0,"CLASSIFICATION_TYPE":"U","NORAD_CAT_ID":38767,"ELEMENT_SET_NO":999,"REV_AT_EPOCH":35768,"BSTAR":0.0011292736,"MEAN_MOTION_DOT":0.00108446,"MEAN_MOTION_DDOT":0},{"OBJECT_NAME":"STRAND-1","OBJECT_ID":"2013-009E","EPOCH":"2026-03-14T10:30:53.167104","MEAN_MOTION":14.37099499,"ECCENTRICITY":0.00092737,"INCLINATION":98.3892,"RA_OF_ASC_NODE":256.0118,"ARG_OF_PERICENTER":148.2913,"MEAN_ANOMALY":211.8834,"EPHEMERIS_TYPE":0,"CLASSIFICATION_TYPE":"U","NORAD_CAT_ID":39090,"ELEMENT_SET_NO":999,"REV_AT_EPOCH":68345,"BSTAR":0.00015431045,"MEAN_MOTION_DOT":4.16e-6,"MEAN_MOTION_DDOT":0},{"OBJECT_NAME":"BRITE-AUSTRIA","OBJECT_ID":"2013-009F","EPOCH":"2026-03-14T11:31:43.002912","MEAN_MOTION":14.3649938,"ECCENTRICITY":0.00106483,"INCLINATION":98.3961,"RA_OF_ASC_NODE":255.268,"ARG_OF_PERICENTER":157.2399,"MEAN_ANOMALY":202.9262,"EPHEMERIS_TYPE":0,"CLASSIFICATION_TYPE":"U","NORAD_CAT_ID":39091,"ELEMENT_SET_NO":999,"REV_AT_EPOCH":68345,"BSTAR":0.00010501542,"MEAN_MOTION_DOT":2.66e-6,"MEAN_MOTION_DDOT":0},{"OBJECT_NAME":"NEE-01 PEGASO","OBJECT_ID":"2013-018B","EPOCH":"2026-03-14T04:33:54.212256","MEAN_MOTION":14.93130283,"ECCENTRICITY":0.00138215,"INCLINATION":98.105,"RA_OF_ASC_NODE":214.3171,"ARG_OF_PERICENTER":116.2405,"MEAN_ANOMALY":244.0236,"EPHEMERIS_TYPE":0,"CLASSIFICATION_TYPE":"U","NORAD_CAT_ID":39151,"ELEMENT_SET_NO":999,"REV_AT_EPOCH":69652,"BSTAR":0.0004040156,"MEAN_MOTION_DOT":4.16e-5,"MEAN_MOTION_DDOT":0},{"OBJECT_NAME":"POPACS 2","OBJECT_ID":"2013-055E","EPOCH":"2026-03-14T11:39:48.157920","MEAN_MOTION":14.88113822,"ECCENTRICITY":0.04297954,"INCLINATION":80.9889,"RA_OF_ASC_NODE":252.3698,"ARG_OF_PERICENTER":137.5305,"MEAN_ANOMALY":226.0028,"EPHEMERIS_TYPE":0,"CLASSIFICATION_TYPE":"U","NORAD_CAT_ID":39269,"ELEMENT_SET_NO":999,"REV_AT_EPOCH":64911,"BSTAR":0.000558002,"MEAN_MOTION_DOT":0.00032281,"MEAN_MOTION_DDOT":0},{"OBJECT_NAME":"POPACS 3","OBJECT_ID":"2013-055F","EPOCH":"2026-03-14T10:16:16.709088","MEAN_MOTION":14.54121899,"ECCENTRICITY":0.05593172,"INCLINATION":81.0048,"RA_OF_ASC_NODE":331.7976,"ARG_OF_PERICENTER":358.3347,"MEAN_ANOMALY":1.5961,"EPHEMERIS_TYPE":0,"CLASSIFICATION_TYPE":"U","NORAD_CAT_ID":39270,"ELEMENT_SET_NO":999,"REV_AT_EPOCH":62477,"BSTAR":0.00035878575,"MEAN_MOTION_DOT":0.00014856,"MEAN_MOTION_DDOT":0}]
